{
  "type": "FeatureCollection",
  "features": [
    {
      "type": "Feature",
      "properties": {
        "norad_id": 33860,
        "name": "IRIDIUM 33 DEB",
        "group": "iridium-33-debris",
        "lat": -32.64018868841339,
        "lon": 18.649194095147674,
        "alt_km": 671.3893213666142,
        "timestamp": "2025-12-26T21:25:53.394365+00:00",
        "meta_object_name": "IRIDIUM 33 DEB",
        "meta_object_id": "1997-051AD",
        "meta_epoch": "2025-12-26T12:27:09.911808",
        "meta_mean_motion": 14.67533619,
        "meta_eccentricity": 0.00059571,
        "meta_inclination": 86.3827,
        "meta_ra_of_asc_node": 21.137,
        "meta_arg_of_pericenter": 302.6751,
        "meta_mean_anomaly": 209.4823,
        "meta_ephemeris_type": 0,
        "meta_classification_type": "U",
        "meta_norad_cat_id": 33860,
        "meta_element_set_no": 999,
        "meta_rev_at_epoch": 88924,
        "meta_bstar": 0.0011675944,
        "meta_mean_motion_dot": 6.644e-05,
        "meta_mean_motion_ddot": 0,
        "tle_line1": "1 33860U 97051AD  25360.51886472  .00006644  00000+0  11676-2 0  9991",
        "tle_line2": "2 33860  86.3827  21.1370 0005957 302.6751 209.4823 14.67533619889244"
      },
      "geometry": {
        "type": "Point",
        "coordinates": [
          18.649194095147674,
          -32.64018868841339
        ]
      }
    },
    {
      "type": "Feature",
      "properties": {
        "norad_id": 33862,
        "name": "IRIDIUM 33 DEB",
        "group": "iridium-33-debris",
        "lat": 67.82771678899893,
        "lon": -157.5788568427495,
        "alt_km": 655.5072579527405,
        "timestamp": "2025-12-26T21:25:53.394376+00:00",
        "meta_object_name": "IRIDIUM 33 DEB",
        "meta_object_id": "1997-051AF",
        "meta_epoch": "2025-12-26T14:56:06.808992",
        "meta_mean_motion": 14.69701742,
        "meta_eccentricity": 0.00518976,
        "meta_inclination": 86.4083,
        "meta_ra_of_asc_node": 31.4067,
        "meta_arg_of_pericenter": 22.4772,
        "meta_mean_anomaly": 97.5758,
        "meta_ephemeris_type": 0,
        "meta_classification_type": "U",
        "meta_norad_cat_id": 33862,
        "meta_element_set_no": 999,
        "meta_rev_at_epoch": 89027,
        "meta_bstar": 0.0015611165,
        "meta_mean_motion_dot": 9.518e-05,
        "meta_mean_motion_ddot": 0,
        "tle_line1": "1 33862U 97051AF  25360.62230103  .00009518  00000+0  15611-2 0  9995",
        "tle_line2": "2 33862  86.4083  31.4067 0051897  22.4772  97.5758 14.69701742890276"
      },
      "geometry": {
        "type": "Point",
        "coordinates": [
          -157.5788568427495,
          67.82771678899893
        ]
      }
    },
    {
      "type": "Feature",
      "properties": {
        "norad_id": 33866,
        "name": "IRIDIUM 33 DEB",
        "group": "iridium-33-debris",
        "lat": 81.66768597832117,
        "lon": 113.2700639467003,
        "alt_km": 731.0609553766108,
        "timestamp": "2025-12-26T21:25:53.394387+00:00",
        "meta_object_name": "IRIDIUM 33 DEB",
        "meta_object_id": "1997-051AK",
        "meta_epoch": "2025-12-26T06:00:43.674336",
        "meta_mean_motion": 14.25315918,
        "meta_eccentricity": 0.01152742,
        "meta_inclination": 86.2997,
        "meta_ra_of_asc_node": 87.3198,
        "meta_arg_of_pericenter": 118.5793,
        "meta_mean_anomaly": 270.1399,
        "meta_ephemeris_type": 0,
        "meta_classification_type": "U",
        "meta_norad_cat_id": 33866,
        "meta_element_set_no": 999,
        "meta_rev_at_epoch": 87003,
        "meta_bstar": 0.0006025218,
        "meta_mean_motion_dot": 1.54e-05,
        "meta_mean_motion_ddot": 0,
        "tle_line1": "1 33866U 97051AK  25360.25050549  .00001540  00000+0  60252-3 0  9991",
        "tle_line2": "2 33866  86.2997  87.3198 0115274 118.5793 270.1399 14.25315918870037"
      },
      "geometry": {
        "type": "Point",
        "coordinates": [
          113.2700639467003,
          81.66768597832117
        ]
      }
    },
    {
      "type": "Feature",
      "properties": {
        "norad_id": 33870,
        "name": "IRIDIUM 33 DEB",
        "group": "iridium-33-debris",
        "lat": 30.234163059637208,
        "lon": -129.92516638540243,
        "alt_km": 721.9693811460966,
        "timestamp": "2025-12-26T21:25:53.394399+00:00",
        "meta_object_name": "IRIDIUM 33 DEB",
        "meta_object_id": "1997-051AP",
        "meta_epoch": "2025-12-26T14:47:54.489696",
        "meta_mean_motion": 14.45919153,
        "meta_eccentricity": 0.00227559,
        "meta_inclination": 86.3733,
        "meta_ra_of_asc_node": 52.3117,
        "meta_arg_of_pericenter": 134.2343,
        "meta_mean_anomaly": 17.5876,
        "meta_ephemeris_type": 0,
        "meta_classification_type": "U",
        "meta_norad_cat_id": 33870,
        "meta_element_set_no": 999,
        "meta_rev_at_epoch": 88337,
        "meta_bstar": 0.00069882256,
        "meta_mean_motion_dot": 2.511e-05,
        "meta_mean_motion_ddot": 0,
        "tle_line1": "1 33870U 97051AP  25360.61660289  .00002511  00000+0  69882-3 0  9991",
        "tle_line2": "2 33870  86.3733  52.3117 0022755 134.2343  17.5876 14.45919153883378"
      },
      "geometry": {
        "type": "Point",
        "coordinates": [
          -129.92516638540243,
          30.234163059637208
        ]
      }
    },
    {
      "type": "Feature",
      "properties": {
        "norad_id": 33881,
        "name": "IRIDIUM 33 DEB",
        "group": "iridium-33-debris",
        "lat": -28.6214163066425,
        "lon": -77.43270999202134,
        "alt_km": 701.4173929562794,
        "timestamp": "2025-12-26T21:25:53.394410+00:00",
        "meta_object_name": "IRIDIUM 33 DEB",
        "meta_object_id": "1997-051BA",
        "meta_epoch": "2025-12-26T15:47:14.085024",
        "meta_mean_motion": 14.56829461,
        "meta_eccentricity": 0.00609996,
        "meta_inclination": 86.3853,
        "meta_ra_of_asc_node": 100.6927,
        "meta_arg_of_pericenter": 129.6306,
        "meta_mean_anomaly": 285.6415,
        "meta_ephemeris_type": 0,
        "meta_classification_type": "U",
        "meta_norad_cat_id": 33881,
        "meta_element_set_no": 999,
        "meta_rev_at_epoch": 87703,
        "meta_bstar": 0.0022432869,
        "meta_mean_motion_dot": 0.00010332,
        "meta_mean_motion_ddot": 0,
        "tle_line1": "1 33881U 97051BA  25360.65780191  .00010332  00000+0  22433-2 0  9992",
        "tle_line2": "2 33881  86.3853 100.6927 0060999 129.6306 285.6415 14.56829461877035"
      },
      "geometry": {
        "type": "Point",
        "coordinates": [
          -77.43270999202134,
          -28.6214163066425
        ]
      }
    },
    {
      "type": "Feature",
      "properties": {
        "norad_id": 33884,
        "name": "IRIDIUM 33 DEB",
        "group": "iridium-33-debris",
        "lat": 43.70518283786685,
        "lon": 179.95141226503577,
        "alt_km": 637.1575934252251,
        "timestamp": "2025-12-26T21:25:53.394421+00:00",
        "meta_object_name": "IRIDIUM 33 DEB",
        "meta_object_id": "1997-051BD",
        "meta_epoch": "2025-12-26T11:45:10.238976",
        "meta_mean_motion": 14.77706795,
        "meta_eccentricity": 0.00088046,
        "meta_inclination": 86.3712,
        "meta_ra_of_asc_node": 3.6109,
        "meta_arg_of_pericenter": 269.9643,
        "meta_mean_anomaly": 242.2854,
        "meta_ephemeris_type": 0,
        "meta_classification_type": "U",
        "meta_norad_cat_id": 33884,
        "meta_element_set_no": 999,
        "meta_rev_at_epoch": 89050,
        "meta_bstar": 0.0015056311,
        "meta_mean_motion_dot": 0.00010823,
        "meta_mean_motion_ddot": 0,
        "tle_line1": "1 33884U 97051BD  25360.48970184  .00010823  00000+0  15056-2 0  9997",
        "tle_line2": "2 33884  86.3712   3.6109 0008804 269.9643 242.2854 14.77706795890505"
      },
      "geometry": {
        "type": "Point",
        "coordinates": [
          179.95141226503577,
          43.70518283786685
        ]
      }
    },
    {
      "type": "Feature",
      "properties": {
        "norad_id": 33886,
        "name": "IRIDIUM 33 DEB",
        "group": "iridium-33-debris",
        "lat": 69.5659569378785,
        "lon": -128.5067430345295,
        "alt_km": 763.447768424995,
        "timestamp": "2025-12-26T21:25:53.394432+00:00",
        "meta_object_name": "IRIDIUM 33 DEB",
        "meta_object_id": "1997-051BF",
        "meta_epoch": "2025-12-26T14:45:54.639072",
        "meta_mean_motion": 14.36067742,
        "meta_eccentricity": 0.00136578,
        "meta_inclination": 86.3819,
        "meta_ra_of_asc_node": 61.3879,
        "meta_arg_of_pericenter": 192.7494,
        "meta_mean_anomaly": 282.4081,
        "meta_ephemeris_type": 0,
        "meta_classification_type": "U",
        "meta_norad_cat_id": 33886,
        "meta_element_set_no": 999,
        "meta_rev_at_epoch": 88251,
        "meta_bstar": 0.00019455138,
        "meta_mean_motion_dot": 5.86e-06,
        "meta_mean_motion_ddot": 0,
        "tle_line1": "1 33886U 97051BF  25360.61521573  .00000586  00000+0  19455-3 0  9991",
        "tle_line2": "2 33886  86.3819  61.3879 0013657 192.7494 282.4081 14.36067742882516"
      },
      "geometry": {
        "type": "Point",
        "coordinates": [
          -128.5067430345295,
          69.5659569378785
        ]
      }
    }
  ]
}